[{"OBJECT_NAME":"STARLINK-5783","OBJECT_ID":"2023-042AN","EPOCH":"2026-03-09T22:00:01.999584","MEAN_MOTION":15.08650894,"ECCENTRICITY":0.00016174,"INCLINATION":43.0002,"RA_OF_ASC_NODE":41.7777,"ARG_OF_PERICENTER":282.5326,"MEAN_ANOMALY":144.2622,"EPHEMERIS_TYPE":0,"CLASSIFICATION_TYPE":"U","NORAD_CAT_ID":56022,"ELEMENT_SET_NO":999,"REV_AT_EPOCH":573,"BSTAR":0.0037600239,"MEAN_MOTION_DOT":0.00060186,"MEAN_MOTION_DDOT":0},{"OBJECT_NAME":"PEGASUS DEB","OBJECT_ID":"1994-029KL","EPOCH":"2026-03-09T21:20:10.241088","MEAN_MOTION":13.96859935,"ECCENTRICITY":0.05133126,"INCLINATION":81.4593,"RA_OF_ASC_NODE":238.2872,"ARG_OF_PERICENTER":338.9836,"MEAN_ANOMALY":19.0885,"EPHEMERIS_TYPE":0,"CLASSIFICATION_TYPE":"U","NORAD_CAT_ID":24213,"ELEMENT_SET_NO":999,"REV_AT_EPOCH":14823,"BSTAR":0.00070532339,"MEAN_MOTION_DOT":3.072e-5,"MEAN_MOTION_DDOT":0}]
